{
  "type": "FeatureCollection",
  "features": [
    {
      "type": "Feature",
      "properties": {
        "norad_id": 59600,
        "name": "GSAT0227 (GALILEO 30)",
        "group": "gnss",
        "lat": -27.15091099592654,
        "lon": 85.33327950395115,
        "alt_km": 23233.894888422205,
        "timestamp": "2025-12-09T11:33:55.043202+00:00",
        "meta_object_name": "GSAT0227 (GALILEO 30)",
        "meta_object_id": "2024-079C",
        "meta_epoch": "2025-12-08T08:44:01.424832",
        "meta_mean_motion": 1.70474656,
        "meta_eccentricity": 0.00032972,
        "meta_inclination": 54.9942,
        "meta_ra_of_asc_node": 106.4167,
        "meta_arg_of_pericenter": 114.0276,
        "meta_mean_anomaly": 245.9681,
        "meta_ephemeris_type": 0,
        "meta_classification_type": "U",
        "meta_norad_cat_id": 59600,
        "meta_element_set_no": 999,
        "meta_rev_at_epoch": 1011,
        "meta_bstar": 0,
        "meta_mean_motion_dot": 8e-08,
        "meta_mean_motion_ddot": 0,
        "tle_line1": "1 59600U 24079C   25342.36390538  .00000008  00000+0  00000+0 0  9991",
        "tle_line2": "2 59600  54.9942 106.4167 0003297 114.0276 245.9681  1.70474656 10110"
      },
      "geometry": {
        "type": "Point",
        "coordinates": [
          85.33327950395115,
          -27.15091099592654
        ]
      }
    },
    {
      "type": "Feature",
      "properties": {
        "norad_id": 61182,
        "name": "GSAT0232 (GALILEO 32)",
        "group": "gnss",
        "lat": 15.818291599595039,
        "lon": 35.19371049733483,
        "alt_km": 23216.733996854637,
        "timestamp": "2025-12-09T11:33:55.043213+00:00",
        "meta_object_name": "GSAT0232 (GALILEO 32)",
        "meta_object_id": "2024-167A",
        "meta_epoch": "2025-12-08T22:09:29.829888",
        "meta_mean_motion": 1.70473333,
        "meta_eccentricity": 0.000203,
        "meta_inclination": 55.2421,
        "meta_ra_of_asc_node": 226.5356,
        "meta_arg_of_pericenter": 212.642,
        "meta_mean_anomaly": 325.1995,
        "meta_ephemeris_type": 0,
        "meta_classification_type": "U",
        "meta_norad_cat_id": 61182,
        "meta_element_set_no": 999,
        "meta_rev_at_epoch": 763,
        "meta_bstar": 0,
        "meta_mean_motion_dot": 1.4e-07,
        "meta_mean_motion_ddot": 0,
        "tle_line1": "1 61182U 24167A   25342.92326192  .00000014  00000+0  00000+0 0  9991",
        "tle_line2": "2 61182  55.2421 226.5356 0002030 212.6420 325.1995  1.70473333  7631"
      },
      "geometry": {
        "type": "Point",
        "coordinates": [
          35.19371049733483,
          15.818291599595039
        ]
      }
    },
    {
      "type": "Feature",
      "properties": {
        "norad_id": 61183,
        "name": "GSAT0226 (GALILEO 31)",
        "group": "gnss",
        "lat": -55.11115775503482,
        "lon": 142.27536036510682,
        "alt_km": 23230.279549898998,
        "timestamp": "2025-12-09T11:33:55.043228+00:00",
        "meta_object_name": "GSAT0226 (GALILEO 31)",
        "meta_object_id": "2024-167B",
        "meta_epoch": "2025-12-09T04:40:23.432160",
        "meta_mean_motion": 1.70473456,
        "meta_eccentricity": 8.07e-05,
        "meta_inclination": 55.2405,
        "meta_ra_of_asc_node": 226.5334,
        "meta_arg_of_pericenter": 119.9636,
        "meta_mean_anomaly": 337.1316,
        "meta_ephemeris_type": 0,
        "meta_classification_type": "U",
        "meta_norad_cat_id": 61183,
        "meta_element_set_no": 999,
        "meta_rev_at_epoch": 761,
        "meta_bstar": 0,
        "meta_mean_motion_dot": 1.2e-07,
        "meta_mean_motion_ddot": 0,
        "tle_line1": "1 61183U 24167B   25343.19471565  .00000012  00000+0  00000+0 0  9995",
        "tle_line2": "2 61183  55.2405 226.5334 0000807 119.9636 337.1316  1.70473456  7612"
      },
      "geometry": {
        "type": "Point",
        "coordinates": [
          142.27536036510682,
          -55.11115775503482
        ]
      }
    },
    {
      "type": "Feature",
      "properties": {
        "norad_id": 61186,
        "name": "BEIDOU-3 M25 (C47)",
        "group": "gnss",
        "lat": 50.32231155260055,
        "lon": 7.598169394249816,
        "alt_km": 21532.92377860315,
        "timestamp": "2025-12-09T11:33:55.043239+00:00",
        "meta_object_name": "BEIDOU-3 M25 (C47)",
        "meta_object_id": "2024-168B",
        "meta_epoch": "2025-12-08T20:08:08.310912",
        "meta_mean_motion": 1.8622988,
        "meta_eccentricity": 0.00054406,
        "meta_inclination": 54.6453,
        "meta_ra_of_asc_node": 308.8544,
        "meta_arg_of_pericenter": 295.846,
        "meta_mean_anomaly": 63.7287,
        "meta_ephemeris_type": 0,
        "meta_classification_type": "U",
        "meta_norad_cat_id": 61186,
        "meta_element_set_no": 999,
        "meta_rev_at_epoch": 823,
        "meta_bstar": 0,
        "meta_mean_motion_dot": -7.5e-07,
        "meta_mean_motion_ddot": 0,
        "tle_line1": "1 61186U 24168B   25342.83898508 -.00000075  00000+0  00000+0 0  9999",
        "tle_line2": "2 61186  54.6453 308.8544 0005440 295.8460  63.7287  1.86229880  8230"
      },
      "geometry": {
        "type": "Point",
        "coordinates": [
          7.598169394249816,
          50.32231155260055
        ]
      }
    },
    {
      "type": "Feature",
      "properties": {
        "norad_id": 61187,
        "name": "BEIDOU-3 M27 (C49)",
        "group": "gnss",
        "lat": -20.6206031728609,
        "lon": 144.2829495036649,
        "alt_km": 21534.999415327547,
        "timestamp": "2025-12-09T11:33:55.043250+00:00",
        "meta_object_name": "BEIDOU-3 M27 (C49)",
        "meta_object_id": "2024-168C",
        "meta_epoch": "2025-12-09T05:48:09.836064",
        "meta_mean_motion": 1.8623006,
        "meta_eccentricity": 0.0002331,
        "meta_inclination": 54.6404,
        "meta_ra_of_asc_node": 308.8241,
        "meta_arg_of_pericenter": 334.1431,
        "meta_mean_anomaly": 70.4249,
        "meta_ephemeris_type": 0,
        "meta_classification_type": "U",
        "meta_norad_cat_id": 61187,
        "meta_element_set_no": 999,
        "meta_rev_at_epoch": 572,
        "meta_bstar": 0,
        "meta_mean_motion_dot": -7.6e-07,
        "meta_mean_motion_ddot": 0,
        "tle_line1": "1 61187U 24168C   25343.24178051 -.00000076  00000+0  00000+0 0  9991",
        "tle_line2": "2 61187  54.6404 308.8241 0002331 334.1431  70.4249  1.86230060  5728"
      },
      "geometry": {
        "type": "Point",
        "coordinates": [
          144.2829495036649,
          -20.6206031728609
        ]
      }
    },
    {
      "type": "Feature",
      "properties": {
        "norad_id": 62339,
        "name": "GPS BIII-7  (PRN 01)",
        "group": "gnss",
        "lat": 49.514740595629,
        "lon": 37.256818932877565,
        "alt_km": 20172.974589935842,
        "timestamp": "2025-12-09T11:33:55.043263+00:00",
        "meta_object_name": "GPS BIII-7  (PRN 01)",
        "meta_object_id": "2024-242A",
        "meta_epoch": "2025-12-07T21:14:38.700960",
        "meta_mean_motion": 2.00567469,
        "meta_eccentricity": 0.00119344,
        "meta_inclination": 54.9247,
        "meta_ra_of_asc_node": 341.9365,
        "meta_arg_of_pericenter": 343.8064,
        "meta_mean_anomaly": 11.4848,
        "meta_ephemeris_type": 0,
        "meta_classification_type": "U",
        "meta_norad_cat_id": 62339,
        "meta_element_set_no": 999,
        "meta_rev_at_epoch": 741,
        "meta_bstar": 0,
        "meta_mean_motion_dot": -8.7e-07,
        "meta_mean_motion_ddot": 0,
        "tle_line1": "1 62339U 24242A   25341.88517015 -.00000087  00000+0  00000+0 0  9991",
        "tle_line2": "2 62339  54.9247 341.9365 0011934 343.8064  11.4848  2.00567469  7410"
      },
      "geometry": {
        "type": "Point",
        "coordinates": [
          37.256818932877565,
          49.514740595629
        ]
      }
    },
    {
      "type": "Feature",
      "properties": {
        "norad_id": 62850,
        "name": "NVS-02 (IRNSS-1K)",
        "group": "gnss",
        "lat": -3.0625494665909208,
        "lon": 156.8498601892643,
        "alt_km": 33223.04919393108,
        "timestamp": "2025-12-09T11:33:55.043275+00:00",
        "meta_object_name": "NVS-02 (IRNSS-1K)",
        "meta_object_id": "2025-020A",
        "meta_epoch": "2025-12-08T20:55:25.330080",
        "meta_mean_motion": 2.17590396,
        "meta_eccentricity": 0.7347709,
        "meta_inclination": 20.9939,
        "meta_ra_of_asc_node": 329.0605,
        "meta_arg_of_pericenter": 23.7216,
        "meta_mean_anomaly": 357.4978,
        "meta_ephemeris_type": 0,
        "meta_classification_type": "U",
        "meta_norad_cat_id": 62850,
        "meta_element_set_no": 999,
        "meta_rev_at_epoch": 683,
        "meta_bstar": 0.00031399,
        "meta_mean_motion_dot": 1.58e-06,
        "meta_mean_motion_ddot": 0,
        "tle_line1": "1 62850U 25020A   25342.87182095  .00000158  00000+0  31399-3 0  9997",
        "tle_line2": "2 62850  20.9939 329.0605 7347709  23.7216 357.4978  2.17590396  6830"
      },
      "geometry": {
        "type": "Point",
        "coordinates": [
          156.8498601892643,
          -3.0625494665909208
        ]
      }
    }
  ]
}